[{"OBJECT_NAME":"STARLINK-1132","OBJECT_ID":"2020-006A","EPOCH":"2026-03-09T21:59:55.594752","MEAN_MOTION":15.43542258,"ECCENTRICITY":0.00043223,"INCLINATION":53.1566,"RA_OF_ASC_NODE":252.8812,"ARG_OF_PERICENTER":195.3085,"MEAN_ANOMALY":164.7791,"EPHEMERIS_TYPE":0,"CLASSIFICATION_TYPE":"U","NORAD_CAT_ID":45044,"ELEMENT_SET_NO":999,"REV_AT_EPOCH":33696,"BSTAR":0.0010443803,"MEAN_MOTION_DOT":0.00047496,"MEAN_MOTION_DDOT":0},{"OBJECT_NAME":"ICEYE-X35","OBJECT_ID":"2023-174AY","EPOCH":"2026-03-09T23:23:30.016608","MEAN_MOTION":15.44468851,"ECCENTRICITY":0.00107431,"INCLINATION":97.3849,"RA_OF_ASC_NODE":151.4029,"ARG_OF_PERICENTER":192.4001,"MEAN_ANOMALY":167.6984,"EPHEMERIS_TYPE":0,"CLASSIFICATION_TYPE":"U","NORAD_CAT_ID":58302,"ELEMENT_SET_NO":999,"REV_AT_EPOCH":12999,"BSTAR":0.00096661577,"MEAN_MOTION_DOT":0.00044959,"MEAN_MOTION_DDOT":0}]
